{
  "type": "FeatureCollection",
  "features": [
    {
      "type": "Feature",
      "properties": {
        "norad_id": 43823,
        "name": "GEO-KOMPSAT-2A",
        "group": "weather",
        "lat": -0.03168768745069236,
        "lon": -9.82585266269513,
        "alt_km": 35787.179392268255,
        "timestamp": "2025-12-18T08:58:43.035064+00:00",
        "meta_object_name": "GEO-KOMPSAT-2A",
        "meta_object_id": "2018-100A",
        "meta_epoch": "2025-12-16T07:07:06.206304",
        "meta_mean_motion": 1.00271835,
        "meta_eccentricity": 4.993e-05,
        "meta_inclination": 0.0508,
        "meta_ra_of_asc_node": 132.3973,
        "meta_arg_of_pericenter": 330.4458,
        "meta_mean_anomaly": 217.3998,
        "meta_ephemeris_type": 0,
        "meta_classification_type": "U",
        "meta_norad_cat_id": 43823,
        "meta_element_set_no": 999,
        "meta_rev_at_epoch": 2579,
        "meta_bstar": 0,
        "meta_mean_motion_dot": -3.2e-06,
        "meta_mean_motion_ddot": 0,
        "tle_line1": "1 43823U 18100A   25350.29659961 -.00000320  00000+0  00000+0 0  9996",
        "tle_line2": "2 43823   0.0508 132.3973 0000499 330.4458 217.3998  1.00271835 25791"
      },
      "geometry": {
        "type": "Point",
        "coordinates": [
          -9.82585266269513,
          -0.03168768745069236
        ]
      }
    },
    {
      "type": "Feature",
      "properties": {
        "norad_id": 44387,
        "name": "METEOR-M2 2",
        "group": "weather",
        "lat": 81.00505612954935,
        "lon": -109.53500597902368,
        "alt_km": 802.696839628421,
        "timestamp": "2025-12-18T08:58:43.035074+00:00",
        "meta_object_name": "METEOR-M2 2",
        "meta_object_id": "2019-038A",
        "meta_epoch": "2025-12-17T22:26:51.891648",
        "meta_mean_motion": 14.24294091,
        "meta_eccentricity": 0.00014724,
        "meta_inclination": 98.8968,
        "meta_ra_of_asc_node": 331.7278,
        "meta_arg_of_pericenter": 137.8065,
        "meta_mean_anomaly": 222.3227,
        "meta_ephemeris_type": 0,
        "meta_classification_type": "U",
        "meta_norad_cat_id": 44387,
        "meta_element_set_no": 999,
        "meta_rev_at_epoch": 33549,
        "meta_bstar": 0.00011794441,
        "meta_mean_motion_dot": 2.27e-06,
        "meta_mean_motion_ddot": 0,
        "tle_line1": "1 44387U 19038A   25351.93532282  .00000227  00000+0  11794-3 0  9992",
        "tle_line2": "2 44387  98.8968 331.7278 0001472 137.8065 222.3227 14.24294091335491"
      },
      "geometry": {
        "type": "Point",
        "coordinates": [
          -109.53500597902368,
          81.00505612954935
        ]
      }
    },
    {
      "type": "Feature",
      "properties": {
        "norad_id": 47719,
        "name": "ARKTIKA-M 1",
        "group": "weather",
        "lat": 59.5845637219545,
        "lon": -156.11436743621164,
        "alt_km": 35228.65827766708,
        "timestamp": "2025-12-18T08:58:43.035088+00:00",
        "meta_object_name": "ARKTIKA-M 1",
        "meta_object_id": "2021-016A",
        "meta_epoch": "2025-12-16T01:33:46.454400",
        "meta_mean_motion": 2.00630649,
        "meta_eccentricity": 0.72056757,
        "meta_inclination": 63.179,
        "meta_ra_of_asc_node": 83.5626,
        "meta_arg_of_pericenter": 269.1378,
        "meta_mean_anomaly": 15.5886,
        "meta_ephemeris_type": 0,
        "meta_classification_type": "U",
        "meta_norad_cat_id": 47719,
        "meta_element_set_no": 999,
        "meta_rev_at_epoch": 3511,
        "meta_bstar": 0,
        "meta_mean_motion_dot": -1.08e-06,
        "meta_mean_motion_ddot": 0,
        "tle_line1": "1 47719U 21016A   25350.06512100 -.00000108  00000+0  00000+0 0  9996",
        "tle_line2": "2 47719  63.1790  83.5626 7205675 269.1378  15.5886  2.00630649 35117"
      },
      "geometry": {
        "type": "Point",
        "coordinates": [
          -156.11436743621164,
          59.5845637219545
        ]
      }
    },
    {
      "type": "Feature",
      "properties": {
        "norad_id": 49008,
        "name": "FENGYUN 3E",
        "group": "weather",
        "lat": -40.949049292685515,
        "lon": 0.5063335422952415,
        "alt_km": 832.270482212457,
        "timestamp": "2025-12-18T08:58:43.035101+00:00",
        "meta_object_name": "FENGYUN 3E",
        "meta_object_id": "2021-062A",
        "meta_epoch": "2025-12-17T23:01:35.283360",
        "meta_mean_motion": 14.19880324,
        "meta_eccentricity": 6.402e-05,
        "meta_inclination": 98.7474,
        "meta_ra_of_asc_node": 352.4189,
        "meta_arg_of_pericenter": 229.0383,
        "meta_mean_anomaly": 131.0738,
        "meta_ephemeris_type": 0,
        "meta_classification_type": "U",
        "meta_norad_cat_id": 49008,
        "meta_element_set_no": 999,
        "meta_rev_at_epoch": 23086,
        "meta_bstar": -4.8747163e-05,
        "meta_mean_motion_dot": -1.47e-06,
        "meta_mean_motion_ddot": 0,
        "tle_line1": "1 49008U 21062A   25351.95943615 -.00000147  00000+0 -48747-4 0  9997",
        "tle_line2": "2 49008  98.7474 352.4189 0000640 229.0383 131.0738 14.19880324230863"
      },
      "geometry": {
        "type": "Point",
        "coordinates": [
          0.5063335422952415,
          -40.949049292685515
        ]
      }
    },
    {
      "type": "Feature",
      "properties": {
        "norad_id": 51850,
        "name": "GOES 18",
        "group": "weather",
        "lat": -0.006652263043019326,
        "lon": 84.91271639049646,
        "alt_km": 35786.55126231588,
        "timestamp": "2025-12-18T08:58:43.035113+00:00",
        "meta_object_name": "GOES 18",
        "meta_object_id": "2022-021A",
        "meta_epoch": "2025-12-17T17:48:41.773824",
        "meta_mean_motion": 1.00272269,
        "meta_eccentricity": 4.609e-05,
        "meta_inclination": 0.0199,
        "meta_ra_of_asc_node": 176.1469,
        "meta_arg_of_pericenter": 158.7139,
        "meta_mean_anomaly": 241.9291,
        "meta_ephemeris_type": 0,
        "meta_classification_type": "U",
        "meta_norad_cat_id": 51850,
        "meta_element_set_no": 999,
        "meta_rev_at_epoch": 477,
        "meta_bstar": 0,
        "meta_mean_motion_dot": 1.22e-06,
        "meta_mean_motion_ddot": 0,
        "tle_line1": "1 51850U 22021A   25351.74215016  .00000122  00000+0  00000+0 0  9991",
        "tle_line2": "2 51850   0.0199 176.1469 0000460 158.7139 241.9291  1.00272269  4773"
      },
      "geometry": {
        "type": "Point",
        "coordinates": [
          84.91271639049646,
          -0.006652263043019326
        ]
      }
    },
    {
      "type": "Feature",
      "properties": {
        "norad_id": 54234,
        "name": "NOAA 21 (JPSS-2)",
        "group": "weather",
        "lat": -41.7498358983277,
        "lon": -63.49000869522472,
        "alt_km": 832.9760172208871,
        "timestamp": "2025-12-18T08:58:43.035124+00:00",
        "meta_object_name": "NOAA 21 (JPSS-2)",
        "meta_object_id": "2022-150A",
        "meta_epoch": "2025-12-17T19:38:40.048512",
        "meta_mean_motion": 14.19525664,
        "meta_eccentricity": 0.00020066,
        "meta_inclination": 98.7467,
        "meta_ra_of_asc_node": 288.0635,
        "meta_arg_of_pericenter": 28.0934,
        "meta_mean_anomaly": 332.035,
        "meta_ephemeris_type": 0,
        "meta_classification_type": "U",
        "meta_norad_cat_id": 54234,
        "meta_element_set_no": 999,
        "meta_rev_at_epoch": 16081,
        "meta_bstar": 4.2797059e-05,
        "meta_mean_motion_dot": 4.6e-07,
        "meta_mean_motion_ddot": 0,
        "tle_line1": "1 54234U 22150A   25351.81851908  .00000046  00000+0  42797-4 0  9996",
        "tle_line2": "2 54234  98.7467 288.0635 0002006  28.0934 332.0350 14.19525664160812"
      },
      "geometry": {
        "type": "Point",
        "coordinates": [
          -63.49000869522472,
          -41.7498358983277
        ]
      }
    },
    {
      "type": "Feature",
      "properties": {
        "norad_id": 54743,
        "name": "METEOSAT-12 (MTG-I1)",
        "group": "weather",
        "lat": -0.2257614811491948,
        "lon": -138.40429318238154,
        "alt_km": 35781.80719964712,
        "timestamp": "2025-12-18T08:58:43.035136+00:00",
        "meta_object_name": "METEOSAT-12 (MTG-I1)",
        "meta_object_id": "2022-170C",
        "meta_epoch": "2025-12-17T18:27:38.045376",
        "meta_mean_motion": 1.00270194,
        "meta_eccentricity": 0.00015074,
        "meta_inclination": 0.6921,
        "meta_ra_of_asc_node": 24.4378,
        "meta_arg_of_pericenter": 239.4583,
        "meta_mean_anomaly": 99.3598,
        "meta_ephemeris_type": 0,
        "meta_classification_type": "U",
        "meta_norad_cat_id": 54743,
        "meta_element_set_no": 999,
        "meta_rev_at_epoch": 1115,
        "meta_bstar": 0,
        "meta_mean_motion_dot": 1.7e-07,
        "meta_mean_motion_ddot": 0,
        "tle_line1": "1 54743U 22170C   25351.76919034  .00000017  00000+0  00000+0 0  9996",
        "tle_line2": "2 54743   0.6921  24.4378 0001507 239.4583  99.3598  1.00270194 11153"
      },
      "geometry": {
        "type": "Point",
        "coordinates": [
          -138.40429318238154,
          -0.2257614811491948
        ]
      }
    }
  ]
}